STARLINK-2013           
1 47636U 21012S   22064.91588137  .00006694  00000+0  46761-3 0  9999
2 47636  53.0554 147.2439 0001232  88.9047 271.2083 15.06419269 58979
STARLINK-2014           
1 47637U 21012T   22064.95273487  .00011669  00000+0  80054-3 0  9994
2 47637  53.0538 147.0771 0001485  55.2959 304.8170 15.06420852 58989
STARLINK-2015           
1 47638U 21012U   22065.14948396  .00002632  00000+0  19552-3 0  9990
2 47638  53.0496  71.2292 0001504  79.5888 280.5271 15.06405058 60055
STARLINK-2016           
1 47639U 21012V   22065.19601098  .00014314  00000+0  97712-3 0  9995
2 47639  53.0542 145.9782 0001730  69.8761 290.2414 15.06428572 59011
STARLINK-2018           
1 47640U 21012W   22064.79240909 -.00000609  00000+0 -22007-4 0  9992
2 47640  53.0539 167.7958 0001389  62.4650 297.6480 15.06397165 59198
STARLINK-2019           
1 47641U 21012X   22064.91668981  .00024108  00000+0  16320-2 0  9998
2 47641  53.0542  72.2354 0001654  60.9944 195.9435 15.06395629  3616
STARLINK-2020           
1 47642U 21012Y   22064.59935148  .00014805  00000+0  10103-2 0  9991
2 47642  53.0498 163.6811 0001482  71.5578 288.5572 15.06416138 59228
STARLINK-2022           
1 47643U 21012Z   22064.61363484  .00003647  00000+0  26354-3 0  9991
2 47643  53.0549 148.5961 0001663  55.2830 304.8316 15.06412877 59443
STARLINK-2026           
1 47644U 21012AA  22064.69288020  .00000687  00000+0  65018-4 0  9994
2 47644  53.0544 168.2458 0001447  79.5655 280.5497 15.06406803 59186
STARLINK-2027           
1 47645U 21012AB  22064.89006202  .00008598  00000+0  59517-3 0  9992
2 47645  53.0534 137.3523 0001576  81.7503 278.3664 15.06414642 59604
STARLINK-2028           
1 47646U 21012AC  22064.81035153  .00000031  00000+0  20974-4 0  9992
2 47646  53.0559 102.7268 0001868  48.2197 311.8952 15.06404723 60081
STARLINK-2030           
1 47647U 21012AD  22064.57124872  .00006466  00000+0  45241-3 0  9994
2 47647  53.0549 168.8025 0001617  62.1085 298.0068 15.06412586 59165
STARLINK-2031           
1 47648U 21012AE  22064.96010362  .00000928  00000+0  81163-4 0  9997
2 47648  53.0559 147.0531 0001674  57.7313 302.3838 15.06412914 58983
STARLINK-2032           
1 47649U 21012AF  22064.96379105  .00001507  00000+0  11999-3 0  9994
2 47649  53.0538 147.0338 0001574  58.9932 301.1212 15.06413194 58989
STARLINK-2033           
1 47650U 21012AG  22065.21442319  .00001978  00000+0  15160-3 0  9999
2 47650  53.0542 145.9069 0001415  64.5925 295.5210 15.06417060 59018
STARLINK-2035           
1 47651U 21012AH  22064.98312613  .00001725  00000+0  13465-3 0  9992
2 47651  53.0548 166.9502 0001410  68.4527 291.6612 15.06402731 58703
STARLINK-2036           
1 47652U 21012AJ  22065.00988022  .00020158  00000+0  13677-2 0  9995
2 47652  53.0542 166.8293 0001457  53.8740 306.2383 15.06415621 58700
STARLINK-2037           
1 47653U 21012AK  22064.73894004  .00002560  00000+0  19061-3 0  9992
2 47653  53.0543 148.0284 0001619  51.7276 308.3858 15.06420959 59458
STARLINK-2038           
1 47654U 21012AL  22064.68182068  .00003019  00000+0  22143-3 0  9992
2 47654  53.0543 168.2884 0001476  55.5328 304.5800 15.06414896 59177
STARLINK-2039           
1 47655U 21012AM  22065.00618051  .00010045  00000+0  69179-3 0  9993
2 47655  53.0544 166.8390 0001565  72.0064 288.1095 15.06428225 58707
STARLINK-2040           
1 47656U 21012AN  22064.62470241  .00002339  00000+0  17587-3 0  9991
2 47656  53.0544 148.5497 0001786  57.9457 302.1705 15.06402515 59447
STARLINK-2041           
1 47657U 21012AP  22064.69659453  .00008259  00000+0  57261-3 0  9993
2 47657  53.0540 168.2362 0001503  78.1309 281.9849 15.06407781 58668
STARLINK-2042           
1 47658U 21012AQ  22064.68919317  .00000672  00000+0  63960-4 0  9996
2 47658  53.0540 168.2628 0001420  70.9166 289.1977 15.06407641 59199
STARLINK-2043           
1 47659U 21012AR  22064.91668981  .00011176  00000+0  76769-3 0  9992
2 47659  53.0566  47.2306 0001760  71.4572 303.0118 15.06414354  3619
STARLINK-2044           
1 47660U 21012AS  22065.25001157  .00000516  00000+0  53583-4 0  9994
2 47660  53.0565  35.7341 0002146  46.6799 196.5751 15.06380456 60565
STARLINK-2051           
1 47661U 21012AT  22064.91956771  .00011758  00000+0  80648-3 0  9999
2 47661  53.0541 147.2231 0001449  70.2379 289.8766 15.06422041 58970
STARLINK-2052           
1 47662U 21012AU  22064.56845885  .00000926  00000+0  81024-4 0  9999
2 47662  53.0545 148.8057 0001442  60.3110 299.8022 15.06409694 59442
STARLINK-2053           
1 47663U 21012AV  22065.25001157 -.00024925  00000+0 -16610-2 0  9997
2 47663  53.0561  65.7530 0001801  47.6639 230.5733 15.06383550 60149
STARLINK-2054           
1 47664U 21012AW  22065.10016685  .00001935  00000+0  14869-3 0  9993
2 47664  53.0544 146.4227 0001623  60.9948 299.1204 15.06418363 59002
STARLINK-2056           
1 47665U 21012AX  22064.67765665  .00007377  00000+0  51346-3 0  9991
2 47665  53.0535 143.3072 0000624 121.6809 238.4241 15.06410317 59523
STARLINK-2057           
1 47666U 21012AY  22065.04255634  .00001150  00000+0  96081-4 0  9993
2 47666  53.0553 141.6803 0001504  68.6993 291.4157 15.06416000 59068
STARLINK-2058           
1 47667U 21012AZ  22064.66708489  .00006758  00000+0  47203-3 0  9992
2 47667  53.0541 168.3697 0001491  55.3976 304.7153 15.06407345 59158
STARLINK-2059           
1 47668U 21012BA  22064.51042872  .00001636  00000+0  12865-3 0  9990
2 47668  53.0540 149.0650 0001550  58.0575 302.0565 15.06409548 59430
STARLINK-2060           
1 47669U 21012BB  22064.91668981  .00008422  00000+0  58374-3 0  9995
2 47669  53.0550  72.2392 0001889  47.2178 354.8766 15.06392271  3617
STARLINK-2062           
1 47670U 21012BC  22064.92325275  .00001521  00000+0  12098-3 0  9990
2 47670  53.0551 147.1993 0002253  37.7383 322.3763 15.06408833 58975
STARLINK-2064           
1 47671U 21012BD  22065.10386012  .00001688  00000+0  13220-3 0  9990
2 47671  53.0528 146.4052 0001488  73.2408 286.8745 15.06404587 59001
STARLINK-2065           
1 47672U 21012BE  22065.14900162  .00002509  00000+0  18717-3 0  9992
2 47672  53.0550 136.1907 0001308  78.9521 281.1615 15.06420947 59148
STARLINK-2066           
1 47673U 21012BF  22064.92693299  .00008739  00000+0  60451-3 0  9991
2 47673  53.0543 147.1960 0001616  61.2264 298.8887 15.06420514 59486
STARLINK-2067           
1 47674U 21012BG  22064.60996132  .00001005  00000+0  86391-4 0  9990
2 47674  53.0541 148.6040 0001346  64.5993 295.5135 15.06395654 59447
STARLINK-2078           
1 47675U 21012BH  22064.93430562  .00002902  00000+0  21361-3 0  9999
2 47675  53.0547 147.1653 0001387  67.0859 293.0276 15.06409347 58973
STARLINK-2083           
1 47676U 21012BJ  22064.91668981 -.00020083  00000+0 -13325-2 0  9998
2 47676  53.0564  37.2429 0001843  55.4396 234.0591 15.06416168  3612
STARLINK-2090           
1 47677U 21012BK  22064.98776297  .00003977  00000+0  28584-3 0  9991
2 47677  53.0551 166.9323 0001414  65.8907 294.2230 15.06387653 58703
STARLINK-2095           
1 47679U 21012BM  22065.01630718  .00000814  00000+0  73513-4 0  9995
2 47679  53.0548 166.8051 0001406  72.6178 287.4965 15.06404672 58716
FLOCK 4S-46             
1 47684U 21006EK  22064.88417782  .00005658  00000+0  31355-3 0  9990
2 47684  97.4568 126.2068 0006354 308.2952  51.7708 15.14177721 61597
FLOCK 4S-47             
1 47685U 21006EL  22064.88533521  .00008403  00000+0  46252-3 0  9994
2 47685  97.4548 125.6991 0005167 298.4290  61.6421 15.14276414 62536
FLOCK 4S-44             
1 47686U 21006EM  22064.86724218  .00005893  00000+0  32738-3 0  9992
2 47686  97.4590 126.2079 0010187 284.6022  75.4080 15.14046581 61584
FLOCK 4S-43             
1 47687U 21006EN  22064.92025809  .00010881  00000+0  60056-3 0  9997
2 47687  97.4559 125.8701 0005309 283.4797  76.5843 15.14103499 62541
FLOCK 4S-45             
1 47688U 21006EP  22065.13243376  .00007736  00000+0  42787-3 0  9999
2 47688  97.4572 125.9705 0009305 266.9440  93.0727 15.14108461 62564
YAOGAN 31 G             
1 47691U 21014A   22065.30904921 -.00000090  00000+0  00000+0 0  9996
2 47691  63.4045 254.2737 0037279 347.9421  12.0733 13.45222333 50480
2021-014B               
1 47692U 21014B   22065.06030690 -.00000090  00000+0  00000+0 0  9993
2 47692  63.4076 257.4903 0031768 350.0686   9.9714 13.43799077 50385
YAOGAN 31 H             
1 47693U 21014C   22065.16036616 -.00000090  00000+0  00000+0 0  9999
2 47693  63.4062 255.5757 0037283 347.6796  12.3324 13.45221810 50437
YAOGAN 31 J             
1 47695U 21014E   22065.38317507 -.00000090  00000+0  00000+0 0  9996
2 47695  63.4044 254.0619 0037220 347.9534  12.0610 13.45222180 50485
FLOCK 4S-41             
1 47698U 21006ER  22064.89450013  .00009062  00000+0  49839-3 0  9999
2 47698  97.4627 126.2020 0008808 281.2235  78.8007 15.14262256 61574
AMAZONIA 1              
1 47699U 21015A   22064.72486440 -.00000044  00000+0  00000+0 0  9990
2 47699  98.4688 142.5197 0000531  32.3417 327.7721 14.40814944 53363
SAI-1 NANOCONNECT-2     
1 47701U 21015C   22065.09395161 -.00000072  00000+0  00000+0 0  9995
2 47701  97.4369 142.6915 0011507  88.7497 271.5450 15.24733335 56454
SINE (SINDHUNETRA)      
1 47702U 21015D   22065.20389396  .00012088  00000+0  49666-3 0  9996
2 47702  97.4357 142.7506 0013382  90.8136 269.4635 15.24255406 56444
SPACEBEE-87             
1 47703U 21015E   22064.72756309  .00026275  00000+0  97722-3 0  9994
2 47703  97.4252 142.0948 0009853  81.7230 278.5126 15.27446450 56398
SPACEBEE-86             
1 47704U 21015F   22064.77417048  .00028142  00000+0  10386-2 0  9999
2 47704  97.4249 142.1738 0009652  81.4397 278.7936 15.27689337 56384
SPACEBEE-85             
1 47705U 21015G   22064.77429686  .00028852  00000+0  10642-2 0  9994
2 47705  97.4248 142.1711 0009644  81.1735 279.0596 15.27702958 56403
